CRE (WAAS/PRN 138)      
1 28868U 05036A   22348.70283683 -.00000054  00000+0  00000+0 0  9990
2 28868   1.0161  91.9521 0000738 177.1461 319.9779  1.00272151 33612
IOR-W (EGNOS/PRN 126)   
1 28899U 05044A   22348.84297605  .00000029  00000+0  00000+0 0  9998
2 28899   3.6441  38.9291 0003038 230.5768 181.3411  1.00271264 62687
QZS-1 (QZSS/PRN 183)    
1 37158U 10045A   22348.71091016 -.00000088  00000+0  00000+0 0  9993
2 37158  42.5286 130.9052 0754460 270.4074  75.2734  1.00262627 44892
GSAT-8 (GAGAN/PRN 127)  
1 37605U 11022A   22349.23731444  .00000105  00000+0  00000+0 0  9999
2 37605   0.0252  93.8624 0008760 168.4689 322.0694  1.00272615 42407
LUCH 5A (SDCM/PRN 140)  
1 37951U 11074B   22349.61822537 -.00000027  00000+0  00000+0 0  9990
2 37951   5.4739  94.2836 0002783 145.2122 234.1463  1.00272698 40365
SES-5 (EGNOS/PRN 136)   
1 38652U 12036A   22349.15564088  .00000054  00000+0  00000+0 0  9990
2 38652   0.0534 298.2625 0002252 323.8029 242.7501  1.00270643 38230
GSAT-10 (GAGAN/PRN 128) 
1 38779U 12051B   22349.17115625 -.00000145  00000+0  00000+0 0  9990
2 38779   0.0513 104.8578 0004746 162.3815 321.2466  1.00271901 37459
LUCH 5B (SDCM/PRN 125)  
1 38977U 12061A   22349.43831688 -.00000117  00000+0  00000+0 0  9993
2 38977   7.6830  61.2329 0003265 134.7402  29.5399  1.00270563 37348
ASTRA 5B (EGNOS/PRN 123)
1 39617U 14011B   22349.34841061  .00000176  00000+0  00000+0 0  9992
2 39617   0.0421 328.8112 0003660 281.0696 351.0254  1.00271712 32036
LUCH 5V (SDCM/PRN 141)  
1 39727U 14023A   22348.88057896 -.00000249  00000+0  00000+0 0  9992
2 39727   1.9313  77.0421 0003248 208.5074 209.7539  1.00270945 31525
GSAT-15 (GAGAN/PRN 139) 
1 41028U 15065A   22349.10151146 -.00000237  00000+0  00000+0 0  9992
2 41028   0.0420 272.2098 0002288 317.6608 343.9332  1.00272326 26024
E 117 W B (WAAS/PRN 131)
1 41589U 16038B   22347.37410334  .00000007  00000+0  00000+0 0  9993
2 41589   0.0093 155.0372 0000343 281.8092  22.8541  1.00270629 23828
SES-15 (WAAS/PRN 133)   
1 42709U 17026A   22348.34328750  .00000079  00000+0  00000+0 0  9993
2 42709   0.0177 359.4484 0000443 277.5142 160.4655  1.00268341 21347
QZS-2 (QZSS/PRN 184)    
1 42738U 17028A   22348.64104571 -.00000169  00000+0  00000+0 0  9994
2 42738  41.4737 261.6181 0758245 269.4261 283.2897  1.00286345 20299
QZS-3 (QZSS/PRN 189)    
1 42917U 17048A   22348.74955726 -.00000328  00000+0  00000+0 0  9999
2 42917   0.0768 229.6376 0002571  46.0492 204.5308  1.00276294 19420
QZS-4 (QZSS/PRN 185)    
1 42965U 17062A   22349.37757729 -.00000312  00000+0  00000+0 0  9994
2 42965  40.7229 359.7979 0751047 271.4645  85.3405  1.00256532 18978
GALAXY 30 (WAAS/PRN 135)
1 46114U 20056C   22348.39875340  .00000056  00000+0  00000+0 0  9996
2 46114   0.0185   9.2510 0002201 253.8591 198.4992  1.00271536  8451
